*******************************************************************************
 Revised: April 12, 2021                Venus                           299 / 2
 
 PHYSICAL DATA (updated 2020-Oct-19):
  Vol. Mean Radius (km) =  6051.84+-0.01 Density (g/cm^3)      =  5.204
  Mass x10^23 (kg)      =    48.685      Volume (x10^10 km^3)  = 92.843
  Sidereal rot. period  =   243.018484 d Sid. Rot. Rate (rad/s)= -0.00000029924
  Mean solar day        =   116.7490 d   Equ. gravity  m/s^2   =  8.870
  Mom. of Inertia       =     0.33       Core radius (km)      = ~3200
  Geometric Albedo      =     0.65       Potential Love # k2   = ~0.25
  GM (km^3/s^2)         = 324858.592     Equatorial Radius, Re = 6051.893 km
  GM 1-sigma (km^3/s^2) =    +-0.006     Mass ratio (Sun/Venus)= 408523.72
  Atmos. pressure (bar) =  90            Max. angular diam.    =   60.2"
  Mean Temperature (K)  = 735            Visual mag. V(1,0)    =   -4.40
  Obliquity to orbit    = 177.3 deg      Hill's sphere rad.,Rp =  167.1
  Sidereal orb. per., y =   0.61519726   Orbit speed, km/s     =   35.021
  Sidereal orb. per., d = 224.70079922   Escape speed, km/s    =   10.361
                                 Perihelion  Aphelion    Mean
  Solar Constant (W/m^2)         2759         2614       2650
  Maximum Planetary IR (W/m^2)    153         153         153
  Minimum Planetary IR (W/m^2)    153         153         153
*******************************************************************************


*******************************************************************************
Ephemeris / WWW_USER Mon May 20 07:37:24 2024 Pasadena, USA      / Horizons    
*******************************************************************************
Target body name: Venus (299)                     {source: DE441}
Center body name: Sun (10)                        {source: DE441}
Center-site name: BODYCENTRIC
*******************************************************************************
Start time      : A.D. 1955-Jan-01 00:00:00.0000 UT      
Stop  time      : A.D. 2060-Jan-01 00:00:00.0000 UT      
Step-size       : 14400 minutes
*******************************************************************************
Target pole/equ : IAU_VENUS                       {East-longitude positive}
Target radii    : 6051.8, 6051.8, 6051.8 km       {Equator_a, b, pole_c}       
Center geodetic : 0.0, 0.0, -695700.0             {E-lon(deg),Lat(deg),Alt(km)}
Center cylindric: 0.0, 0.0, 0.0                   {E-lon(deg),Dxy(km),Dz(km)}
Center pole/equ : IAU_SUN                         {East-longitude positive}
Center radii    : 695700.0, 695700.0, 695700.0 km {Equator_a, b, pole_c}       
Target primary  : Sun
Vis. interferer : None
Rel. light bend : Sun                             {source: DE441}
Rel. lght bnd GM: 1.3271E+11 km^3/s^2                                          
Atmos refraction: NO (AIRLESS)
RA format       : DEG
Time format     : CAL 
Calendar mode   : Mixed Julian/Gregorian
EOP file        : eop.240517.p240810                                           
EOP coverage    : DATA-BASED 1962-JAN-20 TO 2024-MAY-17. PREDICTS-> 2024-AUG-09
Units conversion: 1 au= 149597870.700 km, c= 299792.458 km/s, 1 day= 86400.0 s 
Table cut-offs 1: Elevation (-90.0deg=NO ),Airmass     n.a.    , Daylight (NO )
Table cut-offs 2: Solar elongation (  0.0,180.0=NO ),Local Hour Angle( 0.0=NO )
Table cut-offs 3: RA/DEC angular rate (     0.0=NO )                           
Table format    : Comma Separated Values (spreadsheet)
*******************************************************************************
 Date__(UT)__HR:MN, , , hEcl-Lon,hEcl-Lat,      PlAng,  Tru_Anom,  App_Lon_Sun,
*******************************************************************************
$$SOE
 2004-Feb-13 00:00, , ,  70.1134, -0.3880,    0.01395,  298.5805,  192.3030646,
 2004-Feb-23 00:00, , ,  86.2369,  0.5649,    0.01397,  314.7265,  208.4544320,
 2004-Mar-04 00:00, , , 102.4086,  1.4757,    0.01399,  330.9196,  224.6490397,
 2004-Mar-14 00:00, , , 118.6222,  2.2709,    0.01399,  347.1436,  240.8733752,
 2004-Mar-24 00:00, , , 134.8651,  2.8859,    0.01397,    3.3784,  257.1114133,
 2004-Apr-03 00:00, , , 151.1185,  3.2707,    0.01394,   19.6065,  273.3459134,
 2004-Apr-13 00:00, , , 167.3595,  3.3944,    0.01389,   35.8138,  289.5599182,
 2004-Apr-23 00:00, , , 183.5643,  3.2484,    0.01382,   51.9861,  305.7382159,
 2004-May-03 00:00, , , 199.7125,  2.8465,    0.01374,   68.1090,  321.8685682,
 2004-May-13 00:00, , , 215.7903,  2.2231,    0.01366,   84.1694,  337.9426845,
 2004-May-23 00:00, , , 231.7929,  1.4293,    0.01357,  100.1609,  353.9567986,
 2004-Jun-02 00:00, , , 247.7250,  0.5283,    0.01347,  116.0895,    9.9118604,
 2004-Jun-12 00:00, , , 263.5990, -0.4102,    0.01337,  131.9720,   25.8133730,
 2004-Jun-22 00:00, , , 279.4325, -1.3149,    0.01328,  147.8201,   41.6708195,
 2004-Jul-02 00:00, , , 295.2451, -2.1183,    0.01320,  163.6404,   57.4968093,
 2004-Jul-12 00:00, , , 311.0556, -2.7609,    0.01312,  179.4444,   73.3061683,
 2004-Jul-22 00:00, , , 326.8797, -3.1946,    0.01305,  195.2470,   89.1149243,
 2004-Aug-01 00:00, , , 342.7289, -3.3867,    0.01299,  211.0642,  104.9391842,
 2004-Aug-11 00:00, , , 358.6108, -3.3213,    0.01294,  226.9101,  120.7939795,
 2004-Aug-21 00:00, , ,  14.5301, -3.0019,    0.01289,  242.7972,  136.6921714,
 2004-Aug-31 00:00, , ,  30.4901, -2.4505,    0.01285,  258.7348,  152.6434759,
 2004-Sep-10 00:00, , ,  46.4937, -1.7077,    0.01281,  274.7288,  168.6536735,
 2004-Sep-20 00:00, , ,  62.5442, -0.8292,    0.01277,  290.7810,  184.7240705,
 2004-Sep-30 00:00, , ,  78.6441,  0.1173,    0.01273,  306.8918,  200.8512698,
 2004-Oct-10 00:00, , ,  94.7939,  1.0573,    0.01268,  323.0562,  217.0273100,
 2004-Oct-20 00:00, , , 110.9897,  1.9156,    0.01262,  339.2613,  233.2402191,
 2004-Oct-30 00:00, , , 127.2219,  2.6227,    0.01255,  355.4901,  249.4749350,
 2004-Nov-09 00:00, , , 143.4744,  3.1209,    0.01247,   11.7239,  265.7145338,
 2004-Nov-19 00:00, , , 159.7257,  3.3698,    0.01237,   27.9453,  281.9416563,
 2004-Nov-29 00:00, , , 175.9521,  3.3503,    0.01225,   44.1399,  298.1399879,
 2004-Dec-09 00:00, , , 192.1306,  3.0655,    0.01213,   60.2948,  314.2956355,
 2004-Dec-19 00:00, , , 208.2441,  2.5407,    0.01199,   76.4007,  330.3982393,
 2004-Dec-29 00:00, , , 224.2831,  1.8196,    0.01185,   92.4536,  346.4417577,
 2005-Jan-08 00:00, , , 240.2480,  0.9605,    0.01170,  108.4498,    2.4248797,
 2005-Jan-18 00:00, , , 256.1477,  0.0307,    0.01155,  124.3887,   18.3509821,
 2005-Jan-28 00:00, , , 271.9979, -0.8986,    0.01140,  140.2755,   34.2277333,
 2005-Feb-07 00:00, , , 287.8177, -1.7576,    0.01125,  156.1210,   50.0664453,
 2005-Feb-17 00:00, , , 303.6267, -2.4825,    0.01111,  171.9408,   65.8811773,
 2005-Feb-27 00:00, , , 319.4424, -3.0194,    0.01097,  187.7520,   81.6876424,
 2005-Mar-09 00:00, , , 335.2783, -3.3280,    0.01084,  203.5696,   97.5021070,
 2005-Mar-19 00:00, , , 351.1437, -3.3843,    0.01071,  219.4086,  113.3402898,
 2005-Mar-29 00:00, , ,   7.0446, -3.1826,    0.01059,  235.2840,  129.2162391,
 2005-Apr-08 00:00, , ,  22.9847, -2.7363,    0.01048,  251.2055,  145.1412615,
 2005-Apr-18 00:00, , ,  38.9672, -2.0774,    0.01036,  267.1799,  161.1230579,
 2005-Apr-28 00:00, , ,  54.9951, -1.2548,    0.01025,  283.2111,  177.1650657,
 2005-May-08 00:00, , ,  71.0713, -0.3313,    0.01013,  299.2997,  193.2660796,
 2005-May-18 00:00, , ,  87.1976,  0.6212,    0.01001,  315.4422,  209.4202220,
 2005-May-28 00:00, , , 103.3724,  1.5271,    0.00989,  331.6291,  225.6173070,
 2005-Jun-07 00:00, , , 119.5889,  2.3133,    0.00975,  347.8450,  241.8435947,
 2005-Jun-17 00:00, , , 135.8341,  2.9158,    0.00961,    4.0733,  258.0828603,
 2005-Jun-27 00:00, , , 152.0887,  3.2856,    0.00946,   20.2986,  274.3177770,
 2005-Jul-07 00:00, , , 168.3296,  3.3932,    0.00930,   36.5044,  290.5313848,
 2005-Jul-17 00:00, , , 184.5331,  3.2313,    0.00912,   52.6773,  306.7085126,
 2005-Jul-27 00:00, , , 200.6789,  2.8149,    0.00895,   68.8082,  322.8370329,
 2005-Aug-06 00:00, , , 216.7535,  2.1796,    0.00876,   84.8913,  338.9088121,
 2005-Aug-16 00:00, , , 232.7527,  1.3774,    0.00857,  100.9217,  354.9202859,
 2005-Aug-26 00:00, , , 248.6816,  0.4720,    0.00837,  116.8960,   10.8726284,
 2005-Sep-05 00:00, , , 264.5530, -0.4664,    0.00818,  132.8131,   26.7715346,
 2005-Sep-15 00:00, , , 280.3847, -1.3669,    0.00798,  148.6821,   42.6266943,
 2005-Sep-25 00:00, , , 296.1967, -2.1622,    0.00779,  164.5183,   58.4509884,
 2005-Oct-05 00:00, , , 312.0075, -2.7934,    0.00760,  180.3386,   74.2594903,
 2005-Oct-15 00:00, , , 327.8327, -3.2133,    0.00741,  196.1608,   90.0683784,
 2005-Oct-25 00:00, , , 343.6836, -3.3901,    0.00723,  212.0022,  105.8937951,
 2005-Nov-04 00:00, , , 359.5675, -3.3092,    0.00705,  227.8779,  121.7507044,
 2005-Nov-14 00:00, , ,  15.4892, -2.9749,    0.00688,  243.8002,  137.6518103,
 2005-Nov-24 00:00, , ,  31.4517, -2.4107,    0.00670,  259.7774,  153.6065959,
 2005-Dec-04 00:00, , ,  47.4582, -1.6580,    0.00653,  275.8136,  169.6205449,
 2005-Dec-14 00:00, , ,  63.5118, -0.7733,    0.00636,  291.9143,  185.6946400,
 2005-Dec-24 00:00, , ,  79.6148,  0.1749,    0.00619,  308.0794,  201.8251738,
 2006-Jan-03 00:00, , ,  95.7675,  1.1121,    0.00601,  324.2985,  218.0039956,
 2006-Jan-13 00:00, , , 111.9655,  1.9632,    0.00583,  340.5523,  234.2189597,
 2006-Jan-23 00:00, , , 128.1989,  2.6591,    0.00564,  356.8199,  250.4547090,
 2006-Feb-02 00:00, , , 144.4509,  3.1432,    0.00545,   13.0847,  266.6938367,
 2006-Feb-12 00:00, , , 160.7000,  3.3762,    0.00525,   29.3299,  282.9187941,
 2006-Feb-22 00:00, , , 176.9222,  3.3404,    0.00505,   45.5373,  299.1134832,
 2006-Mar-04 00:00, , , 193.0954,  3.0404,    0.00484,   61.6944,  315.2644179,
 2006-Mar-14 00:00, , , 209.2026,  2.5025,    0.00463,   77.7984,  331.3617065,
 2006-Mar-24 00:00, , , 225.2353,  1.7715,    0.00441,   93.8486,  347.3998047,
